ONEWEB-0235             
1 48771U 21045E   24315.46436216  .00000209  00000+0  52217-3 0  9996
2 48771  87.9106  15.3910 0002305  84.3646 275.7747 13.15549998167636
ONEWEB-0242             
1 48772U 21045F   24315.45802645 -.00000027  00000+0 -10675-3 0  9991
2 48772  87.9105  15.3795 0002009  94.9106 265.2254 13.15549677167671
ONEWEB-0241             
1 48773U 21045G   24315.44534632 -.00002710  00000+0 -72331-2 0  9996
2 48773  87.9113  15.4424 0001912  79.5785 280.5561 13.15562979168712
ONEWEB-0243             
1 48774U 21045H   24315.17281125  .00000126  00000+0  29991-3 0  9995
2 48774  87.9117  15.4570 0002239  88.7035 271.4352 13.15550525167576
ONEWEB-0222             
1 48775U 21045J   24315.46039463  .00000155  00000+0  37662-3 0  9990
2 48775  87.9102  15.3877 0001832  91.4261 268.7079 13.15549096167655
ONEWEB-0244             
1 48776U 21045K   24315.10625574  .00000067  00000+0  14508-3 0  9992
2 48776  87.9103  15.4386 0002020  97.3685 262.7675 13.15549446168171
ONEWEB-0247             
1 48777U 21045L   24315.86366597  .00000134  00000+0  32276-3 0  9990
2 48777  87.9112  15.3404 0002648  81.3893 278.7537 13.15549720168845
ONEWEB-0245             
1 48778U 21045M   24315.09834144  .00000119  00000+0  28233-3 0  9995
2 48778  87.9103  15.4727 0001719  90.0766 270.0561 13.15551137167586
